{"generatedAt":"2026-04-14T07:56:45.725768Z","satellites":[{"name":"ONEWEB-0636","tle1":"1 56077U 23043AH  26103.71565759 -.00000033  00000+0 -12302-3 0  9992","tle2":"2 56077  87.8937 272.0613 0001857 102.5199 257.6139 13.15547042147937"},{"name":"ONEWEB-0637","tle1":"1 56078U 23043AJ  26103.70931751 -.00000004  00000+0 -43407-4 0  9990","tle2":"2 56078  87.8937 272.0802 0001545 103.3062 256.8241 13.15547229147954"},{"name":"ONEWEB-0647","tle1":"1 56079U 23043AK  26103.70457061  .00000050  00000+0  99664-4 0  9993","tle2":"2 56079  87.8937 272.0935 0001923  97.2066 262.9283 13.15548452147949"},{"name":"ONEWEB-0651","tle1":"1 56080U 23043AL  26103.92798989  .00000201  00000+0  49947-3 0  9992","tle2":"2 56080  87.8934 272.0433 0001725 104.3808 255.7514 13.15547514149177"},{"name":"ONEWEB-0718","tle1":"1 56081U 23043AM  26103.69506183  .00000148  00000+0  35942-3 0  9990","tle2":"2 56081  87.8936 272.0704 0001440  81.7290 278.4004 13.15546835147953"},{"name":"ONEWEB-0561","tle1":"1 56710U 23068A   26103.80450510  .00000043  00000+0  74613-4 0  9994","tle2":"2 56710  87.9142 287.2955 0002025 101.3503 258.7858 13.20771540141001"},{"name":"ONEWEB-0668","tle1":"1 56711U 23068B   26103.83151040  .00000119  00000+0  27772-3 0  9991","tle2":"2 56711  87.9070 241.5541 0001246 100.8674 259.2598 13.16594037143315"},{"name":"ONEWEB-0676","tle1":"1 56712U 23068C   26103.61142084  .00000107  00000+0  24670-3 0  9997","tle2":"2 56712  87.9061 241.6064 0001957 111.2010 248.9331 13.16592763143208"},{"name":"ONEWEB-0677","tle1":"1 56713U 23068D   26103.79346481 -.00000013  00000+0 -63150-4 0  9999","tle2":"2 56713  87.9137 287.2900 0001445 102.0696 258.0599 13.20774074141307"},{"name":"ONEWEB-0678","tle1":"1 56714U 23068E   26103.89154799  .00000015  00000+0  61340-5 0  9990","tle2":"2 56714  87.8942 272.0168 0002064  94.1367 265.9999 13.15547958140834"},{"name":"ONEWEB-0679","tle1":"1 56715U 23068F   26103.79825526 -.00000023  00000+0 -94538-4 0  9998","tle2":"2 56715  87.9064 241.5583 0001480 118.4237 241.7043 13.16593693143259"},{"name":"ONEWEB-0680","tle1":"1 56716U 23068G   26103.82961691  .00000058  00000+0  10865-3 0  9993","tle2":"2 56716  87.9204 256.7842 0001278 103.9343 256.1933 13.21823344142593"},{"name":"ONEWEB-0681","tle1":"1 56717U 23068H   26103.65891807  .00000050  00000+0  88954-4 0  9993","tle2":"2 56717  87.9194 256.8237 0002374 121.7694 238.3672 13.21827059142562"},{"name":"ONEWEB-0682","tle1":"1 56718U 23068J   26103.53502709  .00000229  00000+0  57426-3 0  9998","tle2":"2 56718  87.8935 272.0905 0001226  99.1953 260.9316 13.15548792140952"},{"name":"ONEWEB-0683","tle1":"1 56719U 23068K   26103.71091245 -.00000002  00000+0 -38115-4 0  9993","tle2":"2 56719  87.8945 272.0525 0001489  93.2998 266.8303 13.15547938140948"},{"name":"ONEWEB-0684","tle1":"1 56720U 23068L   26103.71883628 -.00000041  00000+0 -14208-3 0  9998","tle2":"2 56720  87.8943 272.0426 0002815  73.7118 286.4322 13.15548566140777"}]}