[{"OBJECT_NAME":"ONEWEB-0636","OBJECT_ID":"2023-043AH","EPOCH":"2026-04-13T17:10:32.815776","MEAN_MOTION":13.15547042,"ECCENTRICITY":0.0001857,"INCLINATION":87.8937,"RA_OF_ASC_NODE":272.0613,"ARG_OF_PERICENTER":102.5199,"MEAN_ANOMALY":257.6139,"EPHEMERIS_TYPE":0,"CLASSIFICATION_TYPE":"U","NORAD_CAT_ID":56077,"ELEMENT_SET_NO":999,"REV_AT_EPOCH":14793,"BSTAR":-0.00012302,"MEAN_MOTION_DOT":-3.3e-07,"MEAN_MOTION_DDOT":0.0},{"OBJECT_NAME":"ONEWEB-0637","OBJECT_ID":"2023-043AJ","EPOCH":"2026-04-13T17:01:25.032864","MEAN_MOTION":13.15547229,"ECCENTRICITY":0.0001545,"INCLINATION":87.8937,"RA_OF_ASC_NODE":272.0802,"ARG_OF_PERICENTER":103.3062,"MEAN_ANOMALY":256.8241,"EPHEMERIS_TYPE":0,"CLASSIFICATION_TYPE":"U","NORAD_CAT_ID":56078,"ELEMENT_SET_NO":999,"REV_AT_EPOCH":14795,"BSTAR":-4.3407000000000006e-05,"MEAN_MOTION_DOT":-4e-08,"MEAN_MOTION_DDOT":0.0},{"OBJECT_NAME":"ONEWEB-0647","OBJECT_ID":"2023-043AK","EPOCH":"2026-04-13T16:54:34.900704","MEAN_MOTION":13.15548452,"ECCENTRICITY":0.0001923,"INCLINATION":87.8937,"RA_OF_ASC_NODE":272.0935,"ARG_OF_PERICENTER":97.2066,"MEAN_ANOMALY":262.9283,"EPHEMERIS_TYPE":0,"CLASSIFICATION_TYPE":"U","NORAD_CAT_ID":56079,"ELEMENT_SET_NO":999,"REV_AT_EPOCH":14794,"BSTAR":9.9664e-05,"MEAN_MOTION_DOT":5e-07,"MEAN_MOTION_DDOT":0.0},{"OBJECT_NAME":"ONEWEB-0651","OBJECT_ID":"2023-043AL","EPOCH":"2026-04-13T22:16:18.326496","MEAN_MOTION":13.15547514,"ECCENTRICITY":0.0001725,"INCLINATION":87.8934,"RA_OF_ASC_NODE":272.0433,"ARG_OF_PERICENTER":104.3808,"MEAN_ANOMALY":255.7514,"EPHEMERIS_TYPE":0,"CLASSIFICATION_TYPE":"U","NORAD_CAT_ID":56080,"ELEMENT_SET_NO":999,"REV_AT_EPOCH":14917,"BSTAR":0.00049947,"MEAN_MOTION_DOT":2.01e-06,"MEAN_MOTION_DDOT":0.0},{"OBJECT_NAME":"ONEWEB-0718","OBJECT_ID":"2023-043AM","EPOCH":"2026-04-13T16:40:53.342112","MEAN_MOTION":13.15546835,"ECCENTRICITY":0.000144,"INCLINATION":87.8936,"RA_OF_ASC_NODE":272.0704,"ARG_OF_PERICENTER":81.729,"MEAN_ANOMALY":278.4004,"EPHEMERIS_TYPE":0,"CLASSIFICATION_TYPE":"U","NORAD_CAT_ID":56081,"ELEMENT_SET_NO":999,"REV_AT_EPOCH":14795,"BSTAR":0.00035942,"MEAN_MOTION_DOT":1.48e-06,"MEAN_MOTION_DDOT":0.0},{"OBJECT_NAME":"ONEWEB-0561","OBJECT_ID":"2023-068A","EPOCH":"2026-04-13T19:18:29.240640","MEAN_MOTION":13.2077154,"ECCENTRICITY":0.0002025,"INCLINATION":87.9142,"RA_OF_ASC_NODE":287.2955,"ARG_OF_PERICENTER":101.3503,"MEAN_ANOMALY":258.7858,"EPHEMERIS_TYPE":0,"CLASSIFICATION_TYPE":"U","NORAD_CAT_ID":56710,"ELEMENT_SET_NO":999,"REV_AT_EPOCH":14100,"BSTAR":7.4613e-05,"MEAN_MOTION_DOT":4.3e-07,"MEAN_MOTION_DDOT":0.0},{"OBJECT_NAME":"ONEWEB-0668","OBJECT_ID":"2023-068B","EPOCH":"2026-04-13T19:57:22.498560","MEAN_MOTION":13.16594037,"ECCENTRICITY":0.0001246,"INCLINATION":87.907,"RA_OF_ASC_NODE":241.5541,"ARG_OF_PERICENTER":100.8674,"MEAN_ANOMALY":259.2598,"EPHEMERIS_TYPE":0,"CLASSIFICATION_TYPE":"U","NORAD_CAT_ID":56711,"ELEMENT_SET_NO":999,"REV_AT_EPOCH":14331,"BSTAR":0.00027772,"MEAN_MOTION_DOT":1.19e-06,"MEAN_MOTION_DDOT":0.0},{"OBJECT_NAME":"ONEWEB-0676","OBJECT_ID":"2023-068C","EPOCH":"2026-04-13T14:40:26.760576","MEAN_MOTION":13.16592763,"ECCENTRICITY":0.0001957,"INCLINATION":87.9061,"RA_OF_ASC_NODE":241.6064,"ARG_OF_PERICENTER":111.201,"MEAN_ANOMALY":248.9331,"EPHEMERIS_TYPE":0,"CLASSIFICATION_TYPE":"U","NORAD_CAT_ID":56712,"ELEMENT_SET_NO":999,"REV_AT_EPOCH":14320,"BSTAR":0.00024670000000000003,"MEAN_MOTION_DOT":1.07e-06,"MEAN_MOTION_DDOT":0.0},{"OBJECT_NAME":"ONEWEB-0677","OBJECT_ID":"2023-068D","EPOCH":"2026-04-13T19:02:35.359584","MEAN_MOTION":13.20774074,"ECCENTRICITY":0.0001445,"INCLINATION":87.9137,"RA_OF_ASC_NODE":287.29,"ARG_OF_PERICENTER":102.0696,"MEAN_ANOMALY":258.0599,"EPHEMERIS_TYPE":0,"CLASSIFICATION_TYPE":"U","NORAD_CAT_ID":56713,"ELEMENT_SET_NO":999,"REV_AT_EPOCH":14130,"BSTAR":-6.315e-05,"MEAN_MOTION_DOT":-1.3e-07,"MEAN_MOTION_DDOT":0.0},{"OBJECT_NAME":"ONEWEB-0678","OBJECT_ID":"2023-068E","EPOCH":"2026-04-13T21:23:49.746336","MEAN_MOTION":13.15547958,"ECCENTRICITY":0.0002064,"INCLINATION":87.8942,"RA_OF_ASC_NODE":272.0168,"ARG_OF_PERICENTER":94.1367,"MEAN_ANOMALY":265.9999,"EPHEMERIS_TYPE":0,"CLASSIFICATION_TYPE":"U","NORAD_CAT_ID":56714,"ELEMENT_SET_NO":999,"REV_AT_EPOCH":14083,"BSTAR":6.134e-06,"MEAN_MOTION_DOT":1.5e-07,"MEAN_MOTION_DDOT":0.0},{"OBJECT_NAME":"ONEWEB-0679","OBJECT_ID":"2023-068F","EPOCH":"2026-04-13T19:09:29.254464","MEAN_MOTION":13.16593693,"ECCENTRICITY":0.000148,"INCLINATION":87.9064,"RA_OF_ASC_NODE":241.5583,"ARG_OF_PERICENTER":118.4237,"MEAN_ANOMALY":241.7043,"EPHEMERIS_TYPE":0,"CLASSIFICATION_TYPE":"U","NORAD_CAT_ID":56715,"ELEMENT_SET_NO":999,"REV_AT_EPOCH":14325,"BSTAR":-9.453800000000001e-05,"MEAN_MOTION_DOT":-2.3e-07,"MEAN_MOTION_DDOT":0.0},{"OBJECT_NAME":"ONEWEB-0680","OBJECT_ID":"2023-068G","EPOCH":"2026-04-13T19:54:38.901024","MEAN_MOTION":13.21823344,"ECCENTRICITY":0.0001278,"INCLINATION":87.9204,"RA_OF_ASC_NODE":256.7842,"ARG_OF_PERICENTER":103.9343,"MEAN_ANOMALY":256.1933,"EPHEMERIS_TYPE":0,"CLASSIFICATION_TYPE":"U","NORAD_CAT_ID":56716,"ELEMENT_SET_NO":999,"REV_AT_EPOCH":14259,"BSTAR":0.00010865,"MEAN_MOTION_DOT":5.8e-07,"MEAN_MOTION_DDOT":0.0},{"OBJECT_NAME":"ONEWEB-0681","OBJECT_ID":"2023-068H","EPOCH":"2026-04-13T15:48:50.521248","MEAN_MOTION":13.21827059,"ECCENTRICITY":0.0002374,"INCLINATION":87.9194,"RA_OF_ASC_NODE":256.8237,"ARG_OF_PERICENTER":121.7694,"MEAN_ANOMALY":238.3672,"EPHEMERIS_TYPE":0,"CLASSIFICATION_TYPE":"U","NORAD_CAT_ID":56717,"ELEMENT_SET_NO":999,"REV_AT_EPOCH":14256,"BSTAR":8.8954e-05,"MEAN_MOTION_DOT":5e-07,"MEAN_MOTION_DDOT":0.0},{"OBJECT_NAME":"ONEWEB-0682","OBJECT_ID":"2023-068J","EPOCH":"2026-04-13T12:50:26.340576","MEAN_MOTION":13.15548792,"ECCENTRICITY":0.0001226,"INCLINATION":87.8935,"RA_OF_ASC_NODE":272.0905,"ARG_OF_PERICENTER":99.1953,"MEAN_ANOMALY":260.9316,"EPHEMERIS_TYPE":0,"CLASSIFICATION_TYPE":"U","NORAD_CAT_ID":56718,"ELEMENT_SET_NO":999,"REV_AT_EPOCH":14095,"BSTAR":0.00057426,"MEAN_MOTION_DOT":2.29e-06,"MEAN_MOTION_DDOT":0.0},{"OBJECT_NAME":"ONEWEB-0683","OBJECT_ID":"2023-068K","EPOCH":"2026-04-13T17:03:42.835680","MEAN_MOTION":13.15547938,"ECCENTRICITY":0.0001489,"INCLINATION":87.8945,"RA_OF_ASC_NODE":272.0525,"ARG_OF_PERICENTER":93.2998,"MEAN_ANOMALY":266.8303,"EPHEMERIS_TYPE":0,"CLASSIFICATION_TYPE":"U","NORAD_CAT_ID":56719,"ELEMENT_SET_NO":999,"REV_AT_EPOCH":14094,"BSTAR":-3.8115000000000004e-05,"MEAN_MOTION_DOT":-2e-08,"MEAN_MOTION_DDOT":0.0},{"OBJECT_NAME":"ONEWEB-0684","OBJECT_ID":"2023-068L","EPOCH":"2026-04-13T17:15:07.454592","MEAN_MOTION":13.15548566,"ECCENTRICITY":0.0002815,"INCLINATION":87.8943,"RA_OF_ASC_NODE":272.0426,"ARG_OF_PERICENTER":73.7118,"MEAN_ANOMALY":286.4322,"EPHEMERIS_TYPE":0,"CLASSIFICATION_TYPE":"U","NORAD_CAT_ID":56720,"ELEMENT_SET_NO":999,"REV_AT_EPOCH":14077,"BSTAR":-0.00014208000000000002,"MEAN_MOTION_DOT":-4.1e-07,"MEAN_MOTION_DDOT":0.0}]